STARLINK-4568           
1 53622U 22104AL  26161.31319622 -.00000113  00000+0  10982-4 0  9999
2 53622  53.1632 177.8675 0001268  85.1812 274.9325 15.08837290209739
STARLINK-4573           
1 53623U 22104AM  26161.33898992  .00000302  00000+0  37081-4 0  9992
2 53623  53.1597 178.0267 0001112  89.2792 270.8327 15.08830768209730
STARLINK-4596           
1 53624U 22104AN  26161.32793705 -.00001724  00000+0 -90200-4 0  9991
2 53624  53.1602 177.9560 0001575  65.9215 294.1941 15.08841888209732
STARLINK-4554           
1 53626U 22104AQ  26161.31689317  .00008086  00000+0  52622-3 0  9996
2 53626  53.1640 177.8857 0001045 109.6668 250.4436 15.08793182209742
STARLINK-4595           
1 53627U 22104AR  26161.32423970  .00008363  00000+0  54333-3 0  9998
2 53627  53.1615 177.9318 0001628 120.6686 239.4467 15.08810714209740
STARLINK-4600           
1 53628U 22104AS  26161.30953014  .00000658  00000+0  59429-4 0  9995
2 53628  53.1643 177.8415 0001150  92.5735 267.5388 15.08835767209740
STARLINK-4602           
1 53629U 22104AT  26161.32056514  .00000095  00000+0  24035-4 0  9997
2 53629  53.1633 177.9087 0000918  84.4317 275.6779 15.08834122209741
STARLINK-4598           
1 53630U 22104AU  26161.28937140  .00000084  00000+0  23351-4 0  9995
2 53630  53.1643 168.4432 0001182  89.5928 270.5199 15.08833291210042
STARLINK-4599           
1 53631U 22104AV  26161.30582958  .00000441  00000+0  45820-4 0  9994
2 53631  53.1644 177.8193 0001252  87.6543 272.4592 15.08833861209748
STARLINK-4606           
1 53632U 22104AW  26161.28104191  .00000285  00000+0  36027-4 0  9996
2 53632  53.1619 168.3918 0001249  86.6748 273.4386 15.08836915210201
STARLINK-4593           
1 53633U 22104AX  26161.28474369  .00000321  00000+0  38263-4 0  9999
2 53633  53.1649 168.4170 0001459  69.9994 290.1155 15.08830866209876
STARLINK-4592           
1 53634U 22104AY  26161.27367391  .00000833  00000+0  70436-4 0  9991
2 53634  53.1618 168.3469 0001250  86.4382 273.6752 15.08835219210202
STARLINK-4586           
1 53636U 22104BA  26161.33254936 -.00001347  00000+0 -66588-4 0  9996
2 53636  53.1606 168.0040 0001322  83.1100 277.0042 15.08827178210211
STARLINK-4396           
1 53637U 22104BB  26161.30043683 -.00003666  00000+0 -21252-3 0  9993
2 53637  53.1643 168.4990 0000861 116.5953 243.5127 15.08818723210202
STARLINK-4594           
1 53638U 22104BC  26161.31412164 -.00000336  00000+0 -30065-5 0  9994
2 53638  53.1593 167.8910 0001072  80.6276 279.4837 15.08834410210214
STARLINK-4422           
1 53639U 22104BD  26161.50002315  .00152048  00000+0  34452-2 0  9996
2 53639  53.2167 161.2140 0001323  64.1674  24.5288 15.42068878  5838
STARLINK-4597           
1 53640U 22104BE  26161.32517355  .00000211  00000+0  31351-4 0  9994
2 53640  53.1604 167.9578 0001434  70.0154 290.0991 15.08835439210213
STARLINK-4588           
1 53641U 22104BF  26161.33623235  .00000436  00000+0  45479-4 0  9996
2 53641  53.1605 168.0218 0001238  91.7729 268.3404 15.08827924210215
STARLINK-4622           
1 53648U 22105A   26161.23905514 -.00003304  00000+0 -22507-3 0  9991
2 53648  97.3806  40.6127 0002082  79.2860 280.8602 15.05653532207162
STARLINK-4386           
1 53649U 22105B   26161.50002315  .00376494  00000+0  85771-2 0  9991
2 53649  97.6032  45.0124 0001374  84.4104 242.2315 15.41449117  5885
STARLINK-4380           
1 53650U 22105C   26161.24182780 -.00000379  00000+0 -22250-4 0  9992
2 53650  97.3787  40.6007 0002519  67.9565 292.1930 15.05653974207150
STARLINK-4388           
1 53651U 22105D   26161.50002315  .00653740  00000+0  98738-2 0  9993
2 53651  97.6030  45.4884 0001711  68.4521 288.8978 15.52396239  5860
STARLINK-4374           
1 53652U 22105E   26161.39135875  .00000170  00000+0  15740-4 0  9996
2 53652  97.3786  40.6959 0001464  71.2249 288.9137 15.05664132207174
STARLINK-4390           
1 53653U 22105F   26161.50002315  .00136845  00000+0  26719-2 0  9997
2 53653  97.6036  44.1245 0001575  73.1924 332.0876 15.46968677  5899
STARLINK-4420           
1 53654U 22105G   26161.38161331 -.00004732  00000+0 -32399-3 0  9991
2 53654  97.3776  41.7635 0002538  86.5264 273.6253 15.05672879207242
STARLINK-4470           
1 53655U 22105H   26161.50002315  .00824533  00000+0  10852-1 0  9997
2 53655  97.6025  45.5504 0001511  69.8686 109.3685 15.56044984  5866
STARLINK-4466           
1 53656U 22105J   26161.23351219  .00001152  00000+0  83827-4 0  9997
2 53656  97.3807  40.5843 0002234  59.3300 300.8147 15.05646997207156
STARLINK-4452           
1 53658U 22105L   26161.40654885  .00000649  00000+0  48993-4 0  9998
2 53658  97.3812  41.8755 0002381  94.6708 265.4791 15.05649577207256
STARLINK-4473           
1 53660U 22105N   26161.22520780 -.00000239  00000+0 -12582-4 0  9999
2 53660  97.3789  40.5828 0002180  59.2159 300.9282 15.05660347207150
STARLINK-4472           
1 53661U 22105P   26161.38858992  .00000186  00000+0  16865-4 0  9993
2 53661  97.3816  40.6748 0001932  92.6197 267.5252 15.05644712207176
