OBJECT_NAME,OBJECT_ID,EPOCH,MEAN_MOTION,ECCENTRICITY,INCLINATION,RA_OF_ASC_NODE,ARG_OF_PERICENTER,MEAN_ANOMALY,EPHEMERIS_TYPE,CLASSIFICATION_TYPE,NORAD_CAT_ID,ELEMENT_SET_NO,REV_AT_EPOCH,BSTAR,MEAN_MOTION_DOT,MEAN_MOTION_DDOT
STARLINK-4568,2022-104AL,2026-06-10T07:31:00.153408,15.08837290,.0001268,53.1632,177.8675,85.1812,274.9325,0,U,53622,999,20973,.10982E-4,-.113E-5,0
STARLINK-4573,2022-104AM,2026-06-10T08:08:08.729088,15.08830768,.0001112,53.1597,178.0267,89.2792,270.8327,0,U,53623,999,20973,.37081E-4,.302E-5,0
STARLINK-4596,2022-104AN,2026-06-10T07:52:13.761120,15.08841888,.0001575,53.1602,177.9560,65.9215,294.1941,0,U,53624,999,20973,-.902E-4,-.1724E-4,0
STARLINK-4554,2022-104AQ,2026-06-10T07:36:19.569888,15.08793182,.0001045,53.1640,177.8857,109.6668,250.4436,0,U,53626,999,20974,.52622E-3,.8086E-4,0
STARLINK-4595,2022-104AR,2026-06-10T07:46:54.310080,15.08810714,.0001628,53.1615,177.9318,120.6686,239.4467,0,U,53627,999,20974,.54333E-3,.8363E-4,0
STARLINK-4600,2022-104AS,2026-06-10T07:25:43.404096,15.08835767,.000115,53.1643,177.8415,92.5735,267.5388,0,U,53628,999,20974,.59429E-4,.658E-5,0
STARLINK-4602,2022-104AT,2026-06-10T07:41:36.828096,15.08834122,.0000918,53.1633,177.9087,84.4317,275.6779,0,U,53629,999,20974,.24035E-4,.95E-6,0
STARLINK-4598,2022-104AU,2026-06-10T06:56:41.688960,15.08833291,.0001182,53.1643,168.4432,89.5928,270.5199,0,U,53630,999,21004,.23351E-4,.84E-6,0
STARLINK-4599,2022-104AV,2026-06-10T07:20:23.675712,15.08833861,.0001252,53.1644,177.8193,87.6543,272.4592,0,U,53631,999,20974,.4582E-4,.441E-5,0
STARLINK-4606,2022-104AW,2026-06-10T06:44:42.021024,15.08836915,.0001249,53.1619,168.3918,86.6748,273.4386,0,U,53632,999,21020,.36027E-4,.285E-5,0
STARLINK-4593,2022-104AX,2026-06-10T06:50:01.854816,15.08830866,.0001459,53.1649,168.4170,69.9994,290.1155,0,U,53633,999,20987,.38263E-4,.321E-5,0
STARLINK-4592,2022-104AY,2026-06-10T06:34:05.425824,15.08835219,.000125,53.1618,168.3469,86.4382,273.6752,0,U,53634,999,21020,.70436E-4,.833E-5,0
STARLINK-4586,2022-104BA,2026-06-10T07:58:52.264704,15.08827178,.0001322,53.1606,168.0040,83.1100,277.0042,0,U,53636,999,21021,-.66588E-4,-.1347E-4,0
STARLINK-4396,2022-104BB,2026-06-10T07:12:37.742112,15.08818723,.0000861,53.1643,168.4990,116.5953,243.5127,0,U,53637,999,21020,-.21252E-3,-.3666E-4,0
STARLINK-4594,2022-104BC,2026-06-10T07:32:20.109696,15.08834410,.0001072,53.1593,167.8910,80.6276,279.4837,0,U,53638,999,21021,-.30065E-5,-.336E-5,0
STARLINK-4422,2022-104BD,2026-06-10T12:00:02.000160,15.42068878,.0001323,53.2167,161.2140,64.1674,24.5288,0,U,53639,999,583,.34452E-2,.152048E-2,0
STARLINK-4597,2022-104BE,2026-06-10T07:48:14.994720,15.08835439,.0001434,53.1604,167.9578,70.0154,290.0991,0,U,53640,999,21021,.31351E-4,.211E-5,0
STARLINK-4588,2022-104BF,2026-06-10T08:04:10.475040,15.08827924,.0001238,53.1605,168.0218,91.7729,268.3404,0,U,53641,999,21021,.45479E-4,.436E-5,0
STARLINK-4622,2022-105A,2026-06-10T05:44:14.364096,15.05653532,.0002082,97.3806,40.6127,79.2860,280.8602,0,U,53648,999,20716,-.22507E-3,-.3304E-4,0
STARLINK-4386,2022-105B,2026-06-10T12:00:02.000160,15.41449117,.0001374,97.6032,45.0124,84.4104,242.2315,0,U,53649,999,588,.85771E-2,.376494E-2,0
STARLINK-4380,2022-105C,2026-06-10T05:48:13.921920,15.05653974,.0002519,97.3787,40.6007,67.9565,292.1930,0,U,53650,999,20715,-.2225E-4,-.379E-5,0
STARLINK-4388,2022-105D,2026-06-10T12:00:02.000160,15.52396239,.0001711,97.6030,45.4884,68.4521,288.8978,0,U,53651,999,586,.98738E-2,.65374E-2,0
STARLINK-4374,2022-105E,2026-06-10T09:23:33.396000,15.05664132,.0001464,97.3786,40.6959,71.2249,288.9137,0,U,53652,999,20717,.1574E-4,.17E-5,0
STARLINK-4390,2022-105F,2026-06-10T12:00:02.000160,15.46968677,.0001575,97.6036,44.1245,73.1924,332.0876,0,U,53653,999,589,.26719E-2,.136845E-2,0
STARLINK-4420,2022-105G,2026-06-10T09:09:31.389984,15.05672879,.0002538,97.3776,41.7635,86.5264,273.6253,0,U,53654,999,20724,-.32399E-3,-.4732E-4,0
STARLINK-4470,2022-105H,2026-06-10T12:00:02.000160,15.56044984,.0001511,97.6025,45.5504,69.8686,109.3685,0,U,53655,999,586,.10852E-1,.824533E-2,0
STARLINK-4466,2022-105J,2026-06-10T05:36:15.453216,15.05646997,.0002234,97.3807,40.5843,59.3300,300.8147,0,U,53656,999,20715,.83827E-4,.1152E-4,0
STARLINK-4452,2022-105L,2026-06-10T09:45:25.820640,15.05649577,.0002381,97.3812,41.8755,94.6708,265.4791,0,U,53658,999,20725,.48993E-4,.649E-5,0
STARLINK-4473,2022-105N,2026-06-10T05:24:17.953920,15.05660347,.000218,97.3789,40.5828,59.2159,300.9282,0,U,53660,999,20715,-.12582E-4,-.239E-5,0
STARLINK-4472,2022-105P,2026-06-10T09:19:34.169088,15.05644712,.0001932,97.3816,40.6748,92.6197,267.5252,0,U,53661,999,20717,.16865E-4,.186E-5,0
